NORAD_CAT_ID,OBJECT_NAME,OBJECT_TYPE,EPOCH,MEAN_MOTION,ECCENTRICITY,INCLINATION,RA_OF_ASC_NODE,ARG_OF_PERICENTER,MEAN_ANOMALY,BSTAR,MEAN_MOTION_DOT,MEAN_MOTION_DDOT,TLE_LINE0,TLE_LINE1,TLE_LINE2,SEMIMAJOR_AXIS,PERIOD,APOGEE,PERIGEE,DECAYED
51998.0,STARLINK-3618,PAYLOAD,2022-10-03 15:13:55,15.08853029,0.0001633,53.2184,244.2935,56.0267,304.088,0.00020225,2.933e-05,0.0,0 STARLINK-3618,1 51998U 22025AU  22276.63466964  .00002933  00000-0  20225-3 0  9997,2 51998  53.2184 244.2935 0001633  56.0267 304.0880 15.08853029 33263,6917.840999999999,95.437,540.835,538.576,0.0
51998.0,STARLINK-3618,PAYLOAD,2022-10-04 02:21:37,15.088517800000002,0.0001524,53.2177,242.2119,57.7079,302.4061,0.00030582,4.584e-05,0.0,0 STARLINK-3618,1 51998U 22025AU  22277.09835305  .00004584  00000-0  30582-3 0  9998,2 51998  53.2177 242.2119 0001524  57.7079 302.4061 15.08851780 33338,6917.844,95.437,540.764,538.655,0.0
51998.0,STARLINK-3618,PAYLOAD,2022-10-04 07:07:47,15.08854006,0.0001587,53.2168,241.3221,57.9584,302.1562,0.00049287,7.568e-05,0.0,0 STARLINK-3618,1 51998U 22025AU  22277.29707411  .00007568  00000-0  49287-3 0  9993,2 51998  53.2168 241.3221 0001587  57.9584 302.1562 15.08854006 31856,6917.8380000000025,95.437,540.8,538.605,0.0
51998.0,STARLINK-3618,PAYLOAD,2022-10-04 15:04:42,15.08850921,0.0001643,53.2166,239.835,57.8967,302.2184,0.00029732,4.448e-05,0.0,0 STARLINK-3618,1 51998U 22025AU  22277.62827285  .00004448  00000-0  29732-3 0  9999,2 51998  53.2166 239.8350 0001643  57.8967 302.2184 15.08850921 31905,6917.847,95.437,540.849,538.575,0.0
51998.0,STARLINK-3618,PAYLOAD,2022-10-05 02:12:24,15.08845425,0.000159,53.2172,237.7522,67.457,292.6591,0.00012885,1.764e-05,0.0,0 STARLINK-3618,1 51998U 22025AU  22278.09195359  .00001764  00000-0  12885-3 0  9990,2 51998  53.2172 237.7522 0001590  67.4570 292.6591 15.08845425 33480,6917.864000000001,95.437,540.8290000000002,538.629,0.0
51998.0,STARLINK-3618,PAYLOAD,2022-10-05 06:58:34,15.08839595,0.0001405,53.2174,236.8602,67.0824,293.0316,-2.1166e-05,-6.25e-06,0.0,0 STARLINK-3618,1 51998U 22025AU  22278.29067550 -.00000625  00000-0 -21166-4 0  9993,2 51998  53.2174 236.8602 0001405  67.0824 293.0316 15.08839595 32002,6917.882,95.438,540.719,538.775,0.0
51998.0,STARLINK-3618,PAYLOAD,2022-10-05 16:30:53,15.08843796,0.0001547,53.2185,235.0787,55.3035,304.8103,-4.2321e-05,-9.62e-06,0.0,0 STARLINK-3618,1 51998U 22025AU  22278.68811608 -.00000962  00000-0 -42321-4 0  9997,2 51998  53.2185 235.0787 0001547  55.3035 304.8103 15.08843796 32069,6917.869000000002,95.437,540.804,538.664,0.0
51998.0,STARLINK-3618,PAYLOAD,2022-10-06 06:49:21,15.08839972,0.0001428,53.2183,232.402,60.0677,300.0457,-2.5761e-05,-6.98e-06,0.0,0 STARLINK-3618,1 51998U 22025AU  22279.28427724 -.00000698  00000-0 -25761-4 0  9991,2 51998  53.2183 232.4020 0001428  60.0677 300.0457 15.08839972 32152,6917.88,95.438,540.7330000000002,538.758,0.0
51998.0,STARLINK-3618,PAYLOAD,2022-10-06 16:21:39,15.08844671,0.0001395,53.2188,230.6178,60.8581,299.2551,4.5198e-05,4.32e-06,0.0,0 STARLINK-3618,1 51998U 22025AU  22279.68171106  .00000432  00000-0  45198-4 0  9995,2 51998  53.2188 230.6178 0001395  60.8581 299.2551 15.08844671 32219,6917.866,95.437,540.696,538.766,0.0
51998.0,STARLINK-3618,PAYLOAD,2022-10-07 01:53:58,15.08840938,0.0001309,53.2187,228.8336,60.9907,299.1217,8.835e-05,1.119e-05,0.0,0 STARLINK-3618,1 51998U 22025AU  22280.07915269  .00001119  00000-0  88350-4 0  9996,2 51998  53.2187 228.8336 0001309  60.9907 299.1217 15.08840938 33784,6917.878000000002,95.437,540.648,538.837,0.0
51998.0,STARLINK-3618,PAYLOAD,2022-10-07 06:40:08,15.08840253,0.0001304,53.2184,227.9415,62.8691,297.2434,2.2438e-05,6.9e-07,0.0,0 STARLINK-3618,1 51998U 22025AU  22280.27787504  .00000069  00000-0  22438-4 0  9995,2 51998  53.2184 227.9415 0001304  62.8691 297.2434 15.08840253 32302,6917.88,95.438,540.6469999999998,538.8430000000002,0.0
51998.0,STARLINK-3618,PAYLOAD,2022-10-08 03:20:09,15.08837391,0.0001196,53.2188,224.0757,60.5593,299.5518,4.8618e-05,4.86e-06,0.0,0 STARLINK-3618,1 51998U 22025AU  22281.13899617  .00000486  00000-0  48618-4 0  9991,2 51998  53.2188 224.0757 0001196  60.5593 299.5518 15.08837391 33946,6917.888000000001,95.438,540.581,538.9259999999998,0.0
51998.0,STARLINK-3618,PAYLOAD,2022-10-08 12:52:28,15.08831612,0.0001159,53.2182,222.2924,63.2426,296.8685,1.2541e-05,-8.8e-07,0.0,0 STARLINK-3618,1 51998U 22025AU  22281.53644241 -.00000088  00000-0  12541-4 0  9991,2 51998  53.2182 222.2924 0001159  63.2426 296.8685 15.08831612 34003,6917.906,95.438,540.573,538.969,0.0
51998.0,STARLINK-3618,PAYLOAD,2022-10-09 12:43:15,15.08834945,0.0001468,53.218,217.8326,61.8564,298.2577,2.9695e-05,1.85e-06,0.0,0 STARLINK-3618,1 51998U 22025AU  22282.53004535  .00000185  00000-0  29695-4 0  9993,2 51998  53.2180 217.8326 0001468  61.8564 298.2577 15.08834945 32643,6917.896,95.438,540.776,538.745,0.0
51998.0,STARLINK-3618,PAYLOAD,2022-10-10 03:01:43,15.08841545,0.0001386999999999,53.2179,215.1535,59.7319,300.381,0.0001137,1.522e-05,0.0,0 STARLINK-3618,1 51998U 22025AU  22283.12619906  .00001522  00000-0  11370-3 0  9999,2 51998  53.2179 215.1535 0001387  59.7319 300.3810 15.08841545 34245,6917.876,95.437,540.7,538.781,0.0
51998.0,STARLINK-3618,PAYLOAD,2022-10-10 12:34:02,15.08846195,0.0001421,53.2184,213.3693,63.1667,296.947,0.0001227,1.666e-05,0.0,0 STARLINK-3618,1 51998U 22025AU  22283.52363639  .00001666  00000-0  12270-3 0  9991,2 51998  53.2184 213.3693 0001421  63.1667 296.9470 15.08846195 32796,6917.861,95.437,540.7090000000002,538.743,0.0
51998.0,STARLINK-3618,PAYLOAD,2022-10-11 04:27:54,15.08827212,0.0001594,53.2192,210.3968,71.3773,288.7393,5.9747e-05,6.63e-06,0.0,0 STARLINK-3618,1 51998U 22025AU  22284.18605229  .00000663  00000-0  59747-4 0  9995,2 51998  53.2192 210.3968 0001594  71.3773 288.7393 15.08827212 34409,6917.919,95.438,540.887,538.682,0.0
51998.0,STARLINK-3618,PAYLOAD,2022-10-11 18:46:24,15.08830175,0.0001587,53.2188,207.7219,67.6685,292.4475,-0.00021145,-3.651e-05,0.0,0 STARLINK-3618,1 51998U 22025AU  22284.78222352 -.00003651  00000-0 -21145-3 0  9995,2 51998  53.2188 207.7219 0001587  67.6685 292.4475 15.08830175 32981,6917.91,95.438,540.873,538.678,0.0
51998.0,STARLINK-3618,PAYLOAD,2022-10-12 12:15:37,15.08842703,0.000152,53.2185,204.4507,71.7857,288.3301,3.1064e-05,2.06e-06,0.0,0 STARLINK-3618,1 51998U 22025AU  22285.51085155  .00000206  00000-0  31064-4 0  9998,2 51998  53.2185 204.4507 0001520  71.7857 288.3301 15.08842703 33091,6917.871999999999,95.437,540.789,538.686,0.0
51998.0,STARLINK-3618,PAYLOAD,2022-10-12 18:37:09,15.08842962,0.0001467,53.2184,203.2606,71.6402,288.475,0.00015253,2.141e-05,0.0,0 STARLINK-3618,1 51998U 22025AU  22285.77580726  .00002141  00000-0  15253-3 0  9991,2 51998  53.2184 203.2606 0001467  71.6402 288.4750 15.08842962 34640,6917.871,95.437,540.751,538.721,0.0
51998.0,STARLINK-3618,PAYLOAD,2022-10-13 00:58:42,15.08834623,0.0001346,53.2186,202.0705,71.0695,289.0443,0.00012633,1.723e-05,0.0,0 STARLINK-3618,1 51998U 22025AU  22286.04077288  .00001723  00000-0  12633-3 0  9990,2 51998  53.2186 202.0705 0001346  71.0695 289.0443 15.08834623 34688,6917.897,95.438,540.693,538.831,0.0
51998.0,STARLINK-3618,PAYLOAD,2022-10-14 00:49:29,15.08841859,0.0001443,53.2189,197.6117,69.1909,290.9238,0.00016687,2.369e-05,0.0,0 STARLINK-3618,1 51998U 22025AU  22287.03436924  .00002369  00000-0  16687-3 0  9996,2 51998  53.2189 197.6117 0001443  69.1909 290.9238 15.08841859 33323,6917.875,95.437,540.738,538.741,0.0
51998.0,STARLINK-3618,PAYLOAD,2022-10-15 00:40:16,15.08842581,0.0001320999999999,53.2186,193.1505,59.0527,301.0595,1.6435e-05,-2.6e-07,0.0,0 STARLINK-3618,1 51998U 22025AU  22288.02796936 -.00000026  00000-0  16435-4 0  9999,2 51998  53.2186 193.1505 0001321  59.0527 301.0595 15.08842581 33470,6917.871999999999,95.437,540.651,538.8240000000002,0.0
51998.0,STARLINK-3618,PAYLOAD,2022-10-16 03:41:49,15.08830893,0.0001419,53.2187,188.0931,68.6828,291.4316,0.0001269,1.732e-05,0.0,0 STARLINK-3618,1 51998U 22025AU  22289.15405089  .00001732  00000-0  12690-3 0  9992,2 51998  53.2187 188.0931 0001419  68.6828 291.4316 15.08830893 35158,6917.908,95.438,540.755,538.7919999999998,0.0
51998.0,STARLINK-3618,PAYLOAD,2022-10-16 06:52:36,15.08832948,0.000154,53.2189,187.5011,82.9078,277.209,-1.649e-05,-5.5e-06,0.0,0 STARLINK-3618,1 51998U 22025AU  22289.28653529 -.00000550  00000-0 -16490-4 0  9992,2 51998  53.2189 187.5011 0001540  82.9078 277.2090 15.08832948 33662,6917.901999999999,95.438,540.832,538.702,0.0
51998.0,STARLINK-3618,PAYLOAD,2022-10-16 18:00:19,15.0882514,0.0001467,53.219,185.4185,78.9052,281.2105,-3.0818e-05,-7.78e-06,0.0,0 STARLINK-3618,1 51998U 22025AU  22289.75022131 -.00000778  00000-0 -30818-4 0  9995,2 51998  53.2190 185.4185 0001467  78.9052 281.2105 15.08825140 33734,6917.926,95.438,540.806,538.776,0.0
51998.0,STARLINK-3618,PAYLOAD,2022-10-17 09:54:10,15.08836487,0.0001424,53.2187,182.4471,70.9651,289.1495,3.1966e-05,2.21e-06,0.0,0 STARLINK-3618,1 51998U 22025AU  22290.41261665  .00000221  00000-0  31966-4 0  9993,2 51998  53.2187 182.4471 0001424  70.9651 289.1495 15.08836487 33831,6917.891,95.438,540.741,538.771,0.0
51998.0,STARLINK-3618,PAYLOAD,2022-10-17 19:26:29,15.08831308,0.0001493,53.2182,180.6627,70.7977,289.3176,1.7384e-05,-1.1e-07,0.0,0 STARLINK-3618,1 51998U 22025AU  22290.81006300 -.00000011  00000-0  17384-4 0  9996,2 51998  53.2182 180.6627 0001493  70.7977 289.3176 15.08831308 33895,6917.906999999997,95.438,540.805,538.739,0.0
51998.0,STARLINK-3618,PAYLOAD,2022-10-18 11:20:20,15.08835957,0.0001434,53.2178,177.6899,71.8246,288.2902,9.6895e-06,-1.34e-06,0.0,0 STARLINK-3618,1 51998U 22025AU  22291.47246295 -.00000134  00000-0  96895-5 0  9999,2 51998  53.2178 177.6899 0001434  71.8246 288.2902 15.08835957 35502,6917.893,95.438,540.75,538.766,0.0
